CCSDS_OMM_VERS = 2.0
CREATION_DATE  = 
ORIGINATOR     = 

OBJECT_NAME    = AQUA
OBJECT_ID      = 2002-022A
CENTER_NAME    = EARTH
REF_FRAME      = TEME
TIME_SYSTEM    = UTC
MEAN_ELEMENT_THEORY = SGP/SGP4

EPOCH          = 2026-03-18T12:28:33.420000
MEAN_MOTION    = 14.61997734
ECCENTRICITY   = .0000733
INCLINATION    = 98.4190
RA_OF_ASC_NODE = 45.0466
ARG_OF_PERICENTER = 110.1300
MEAN_ANOMALY   = 344.9588

EPHEMERIS_TYPE = 0
CLASSIFICATION_TYPE = U
NORAD_CAT_ID   = 27424
ELEMENT_SET_NO = 999
REV_AT_EPOCH   = 27002
BSTAR          = .1888E-3
MEAN_MOTION_DOT = .897E-5
MEAN_MOTION_DDOT = 0

CCSDS_OMM_VERS = 2.0
CREATION_DATE  = 
ORIGINATOR     = 

OBJECT_NAME    = CZ-4B R/B
OBJECT_ID      = 2002-024C
CENTER_NAME    = EARTH
REF_FRAME      = TEME
TIME_SYSTEM    = UTC
MEAN_ELEMENT_THEORY = SGP/SGP4

EPOCH          = 2026-03-18T09:49:15.777696
MEAN_MOTION    = 14.14549108
ECCENTRICITY   = .0050044
INCLINATION    = 98.8819
RA_OF_ASC_NODE = 130.7712
ARG_OF_PERICENTER = 359.5323
MEAN_ANOMALY   = 10.7940

EPHEMERIS_TYPE = 0
CLASSIFICATION_TYPE = U
NORAD_CAT_ID   = 27432
ELEMENT_SET_NO = 999
REV_AT_EPOCH   = 23047
BSTAR          = .43282E-4
MEAN_MOTION_DOT = .39E-6
MEAN_MOTION_DDOT = 0

CCSDS_OMM_VERS = 2.0
CREATION_DATE  = 
ORIGINATOR     = 

OBJECT_NAME    = MIDORI II (ADEOS-II)
OBJECT_ID      = 2002-056A
CENTER_NAME    = EARTH
REF_FRAME      = TEME
TIME_SYSTEM    = UTC
MEAN_ELEMENT_THEORY = SGP/SGP4

EPOCH          = 2026-03-18T09:56:32.775072
MEAN_MOTION    = 14.29291816
ECCENTRICITY   = .0001243
INCLINATION    = 98.7784
RA_OF_ASC_NODE = 35.9530
ARG_OF_PERICENTER = 31.9392
MEAN_ANOMALY   = 328.1864

EPHEMERIS_TYPE = 0
CLASSIFICATION_TYPE = U
NORAD_CAT_ID   = 27597
ELEMENT_SET_NO = 999
REV_AT_EPOCH   = 21154
BSTAR          = .12706E-3
MEAN_MOTION_DOT = .278E-5
MEAN_MOTION_DDOT = 0

CCSDS_OMM_VERS = 2.0
CREATION_DATE  = 
ORIGINATOR     = 

OBJECT_NAME    = H-2A R/B
OBJECT_ID      = 2002-056E
CENTER_NAME    = EARTH
REF_FRAME      = TEME
TIME_SYSTEM    = UTC
MEAN_ELEMENT_THEORY = SGP/SGP4

EPOCH          = 2026-03-18T10:34:01.413696
MEAN_MOTION    = 14.33766445
ECCENTRICITY   = .0070995
INCLINATION    = 98.3218
RA_OF_ASC_NODE = 37.4735
ARG_OF_PERICENTER = 134.8017
MEAN_ANOMALY   = 335.9289

EPHEMERIS_TYPE = 0
CLASSIFICATION_TYPE = U
NORAD_CAT_ID   = 27601
ELEMENT_SET_NO = 999
REV_AT_EPOCH   = 21536
BSTAR          = .98799E-4
MEAN_MOTION_DOT = .241E-5
MEAN_MOTION_DDOT = 0

CCSDS_OMM_VERS = 2.0
CREATION_DATE  = 
ORIGINATOR     = 

OBJECT_NAME    = CZ-4B R/B
OBJECT_ID      = 2003-049C
CENTER_NAME    = EARTH
REF_FRAME      = TEME
TIME_SYSTEM    = UTC
MEAN_ELEMENT_THEORY = SGP/SGP4

EPOCH          = 2026-03-18T09:24:36.659808
MEAN_MOTION    = 14.55028306
ECCENTRICITY   = .0047652
INCLINATION    = 98.6886
RA_OF_ASC_NODE = 72.6388
ARG_OF_PERICENTER = 203.9081
MEAN_ANOMALY   = 155.9902

EPHEMERIS_TYPE = 0
CLASSIFICATION_TYPE = U
NORAD_CAT_ID   = 28059
ELEMENT_SET_NO = 999
REV_AT_EPOCH   = 18786
BSTAR          = .85858E-4
MEAN_MOTION_DOT = .324E-5
MEAN_MOTION_DDOT = 0

CCSDS_OMM_VERS = 2.0
CREATION_DATE  = 
ORIGINATOR     = 

OBJECT_NAME    = CZ-2C R/B
OBJECT_ID      = 2004-012C
CENTER_NAME    = EARTH
REF_FRAME      = TEME
TIME_SYSTEM    = UTC
MEAN_ELEMENT_THEORY = SGP/SGP4

EPOCH          = 2026-03-18T02:42:38.378016
MEAN_MOTION    = 15.65523615
ECCENTRICITY   = .00129385
INCLINATION    = 97.7213
RA_OF_ASC_NODE = 143.2093
ARG_OF_PERICENTER = 274.9057
MEAN_ANOMALY   = 85.0725

EPHEMERIS_TYPE = 0
CLASSIFICATION_TYPE = U
NORAD_CAT_ID   = 28222
ELEMENT_SET_NO = 999
REV_AT_EPOCH   = 20559
BSTAR          = .46804359E-3
MEAN_MOTION_DOT = .47115E-3
MEAN_MOTION_DDOT = 0

CCSDS_OMM_VERS = 2.0
CREATION_DATE  = 
ORIGINATOR     = 

OBJECT_NAME    = SL-16 R/B
OBJECT_ID      = 2004-021B
CENTER_NAME    = EARTH
REF_FRAME      = TEME
TIME_SYSTEM    = UTC
MEAN_ELEMENT_THEORY = SGP/SGP4

EPOCH          = 2026-03-18T10:30:01.157760
MEAN_MOTION    = 14.14594294
ECCENTRICITY   = .0004496
INCLINATION    = 70.9997
RA_OF_ASC_NODE = 214.1339
ARG_OF_PERICENTER = 358.2588
MEAN_ANOMALY   = 1.8518

EPHEMERIS_TYPE = 0
CLASSIFICATION_TYPE = U
NORAD_CAT_ID   = 28353
ELEMENT_SET_NO = 999
REV_AT_EPOCH   = 12407
BSTAR          = -.10292E-3
MEAN_MOTION_DOT = -.245E-5
MEAN_MOTION_DDOT = 0

CCSDS_OMM_VERS = 2.0
CREATION_DATE  = 
ORIGINATOR     = 

OBJECT_NAME    = CZ-4B R/B
OBJECT_ID      = 2004-035C
CENTER_NAME    = EARTH
REF_FRAME      = TEME
TIME_SYSTEM    = UTC
MEAN_ELEMENT_THEORY = SGP/SGP4

EPOCH          = 2026-03-18T02:08:08.026656
MEAN_MOTION    = 15.29210484
ECCENTRICITY   = .00302142
INCLINATION    = 97.3482
RA_OF_ASC_NODE = 111.2311
ARG_OF_PERICENTER = 300.3467
MEAN_ANOMALY   = 59.4786

EPHEMERIS_TYPE = 0
CLASSIFICATION_TYPE = U
NORAD_CAT_ID   = 28415
ELEMENT_SET_NO = 999
REV_AT_EPOCH   = 18119
BSTAR          = .21182498E-3
MEAN_MOTION_DOT = .6008E-4
MEAN_MOTION_DDOT = 0

CCSDS_OMM_VERS = 2.0
CREATION_DATE  = 
ORIGINATOR     = 

OBJECT_NAME    = CZ-2C R/B
OBJECT_ID      = 2004-046B
CENTER_NAME    = EARTH
REF_FRAME      = TEME
TIME_SYSTEM    = UTC
MEAN_ELEMENT_THEORY = SGP/SGP4

EPOCH          = 2026-03-18T11:03:29.629440
MEAN_MOTION    = 14.26995118
ECCENTRICITY   = .0140345
INCLINATION    = 98.1982
RA_OF_ASC_NODE = 351.8986
ARG_OF_PERICENTER = 128.6272
MEAN_ANOMALY   = 232.7572

EPHEMERIS_TYPE = 0
CLASSIFICATION_TYPE = U
NORAD_CAT_ID   = 28480
ELEMENT_SET_NO = 999
REV_AT_EPOCH   = 10975
BSTAR          = .61772E-4
MEAN_MOTION_DOT = .127E-5
MEAN_MOTION_DDOT = 0

CCSDS_OMM_VERS = 2.0
CREATION_DATE  = 
ORIGINATOR     = 

OBJECT_NAME    = ARIANE 5 R/B
OBJECT_ID      = 2004-049H
CENTER_NAME    = EARTH
REF_FRAME      = TEME
TIME_SYSTEM    = UTC
MEAN_ELEMENT_THEORY = SGP/SGP4

EPOCH          = 2026-03-18T10:59:18.151008
MEAN_MOTION    = 14.85281849
ECCENTRICITY   = .0083357
INCLINATION    = 98.2640
RA_OF_ASC_NODE = 246.2438
ARG_OF_PERICENTER = 323.3410
MEAN_ANOMALY   = 36.2117

EPHEMERIS_TYPE = 0
CLASSIFICATION_TYPE = U
NORAD_CAT_ID   = 28499
ELEMENT_SET_NO = 999
REV_AT_EPOCH   = 14709
BSTAR          = .85564E-4
MEAN_MOTION_DOT = .716E-5
MEAN_MOTION_DDOT = 0

CCSDS_OMM_VERS = 2.0
CREATION_DATE  = 
ORIGINATOR     = 

OBJECT_NAME    = CZ-2D R/B
OBJECT_ID      = 2005-024B
CENTER_NAME    = EARTH
REF_FRAME      = TEME
TIME_SYSTEM    = UTC
MEAN_ELEMENT_THEORY = SGP/SGP4

EPOCH          = 2026-03-18T11:51:26.531712
MEAN_MOTION    = 15.60932652
ECCENTRICITY   = .0004306
INCLINATION    = 97.3581
RA_OF_ASC_NODE = 92.9681
ARG_OF_PERICENTER = 22.4109
MEAN_ANOMALY   = 337.7336

EPHEMERIS_TYPE = 0
CLASSIFICATION_TYPE = U
NORAD_CAT_ID   = 28738
ELEMENT_SET_NO = 999
REV_AT_EPOCH   = 14115
BSTAR          = .38021E-3
MEAN_MOTION_DOT = .31794E-3
MEAN_MOTION_DDOT = 0

CCSDS_OMM_VERS = 2.0
CREATION_DATE  = 
ORIGINATOR     = 

OBJECT_NAME    = ALOS (DAICHI)
OBJECT_ID      = 2006-002A
CENTER_NAME    = EARTH
REF_FRAME      = TEME
TIME_SYSTEM    = UTC
MEAN_ELEMENT_THEORY = SGP/SGP4

EPOCH          = 2026-03-18T10:06:06.462432
MEAN_MOTION    = 14.69837977
ECCENTRICITY   = .0000718
INCLINATION    = 98.1233
RA_OF_ASC_NODE = 33.3333
ARG_OF_PERICENTER = 77.5433
MEAN_ANOMALY   = 282.5853

EPHEMERIS_TYPE = 0
CLASSIFICATION_TYPE = U
NORAD_CAT_ID   = 28931
ELEMENT_SET_NO = 999
REV_AT_EPOCH   = 7476
BSTAR          = .2225E-3
MEAN_MOTION_DOT = .128E-4
MEAN_MOTION_DDOT = 0

